{
    "links": {
        "self": "http://www.neowsapp.com/rest/v1/neo/3789477?api_key=iIulBulltgU6a56xZRHN4H3l9WmuAYTsLGpBGhQ2"
    },
    "id": "3789477",
    "neo_reference_id": "3789477",
    "name": "(2017 WR1)",
    "designation": "2017 WR1",
    "nasa_jpl_url": "http://ssd.jpl.nasa.gov/sbdb.cgi?sstr=3789477",
    "absolute_magnitude_h": 26.2,
    "estimated_diameter": {
        "kilometers": {
            "estimated_diameter_min": 0.0152951935,
            "estimated_diameter_max": 0.0342010925
        },
        "meters": {
            "estimated_diameter_min": 15.2951935344,
            "estimated_diameter_max": 34.201092472
        },
        "miles": {
            "estimated_diameter_min": 0.0095039897,
            "estimated_diameter_max": 0.021251567
        },
        "feet": {
            "estimated_diameter_min": 50.1810827555,
            "estimated_diameter_max": 112.2083122258
        }
    },
    "is_potentially_hazardous_asteroid": false,
    "close_approach_data": [
        {
            "close_approach_date": "2017-11-08",
            "close_approach_date_full": "2017-Nov-08 09:01",
            "epoch_date_close_approach": 1510131660000,
            "relative_velocity": {
                "kilometers_per_second": "10.3115257981",
                "kilometers_per_hour": "37121.492873128",
                "miles_per_hour": "23065.85205775"
            },
            "miss_distance": {
                "astronomical": "0.0178836014",
                "lunar": "6.9567209446",
                "kilometers": "2675348.677369018",
                "miles": "1662384.5823197284"
            },
            "orbiting_body": "Earth"
        }
    ],
    "orbital_data": {
        "orbit_id": "3",
        "orbit_determination_date": "2019-07-19 05:26:31",
        "first_observation_date": "2017-11-17",
        "last_observation_date": "2017-11-20",
        "data_arc_in_days": 3,
        "observations_used": 12,
        "orbit_uncertainty": "8",
        "minimum_orbit_intersection": ".00455851",
        "jupiter_tisserand_invariant": "3.351",
        "epoch_osculation": "2458076.5",
        "eccentricity": ".585548038904476",
        "semi_major_axis": "2.285589081130116",
        "inclination": ".9242954920825409",
        "ascending_node_longitude": "177.4603225138334",
        "orbital_period": "1262.105489886834",
        "perihelion_distance": ".9472668769328931",
        "perihelion_argument": "197.2019123140518",
        "aphelion_distance": "3.623911285327339",
        "perihelion_time": "2458042.296366491661",
        "mean_anomaly": "9.756163935318998",
        "mean_motion": ".2852376468406609",
        "equinox": "J2000",
        "orbit_class": {
            "orbit_class_type": "APO",
            "orbit_class_description": "Near-Earth asteroid orbits which cross the Earth’s orbit similar to that of 1862 Apollo",
            "orbit_class_range": "a (semi-major axis) > 1.0 AU; q (perihelion) < 1.017 AU"
        }
    },
    "is_sentry_object": false
}